{
  "type": "FeatureCollection",
  "features": [
    {
      "type": "Feature",
      "properties": {
        "norad_id": 41581,
        "name": "INTELSAT 31 (IS-31)",
        "group": "intelsat",
        "lat": 0.012639218197738633,
        "lon": 83.84410088888274,
        "alt_km": 35792.3962040721,
        "timestamp": "2025-12-02T07:10:08.777436+00:00",
        "meta_object_name": "INTELSAT 31 (IS-31)",
        "meta_object_id": "2016-035A",
        "meta_epoch": "2025-12-01T19:25:31.492128",
        "meta_mean_motion": 1.00269812,
        "meta_eccentricity": 0.0001905,
        "meta_inclination": 0.0161,
        "meta_ra_of_asc_node": 269.3023,
        "meta_arg_of_pericenter": 309.7465,
        "meta_mean_anomaly": 48.2052,
        "meta_ephemeris_type": 0,
        "meta_classification_type": "U",
        "meta_norad_cat_id": 41581,
        "meta_element_set_no": 999,
        "meta_rev_at_epoch": 3470,
        "meta_bstar": 0,
        "meta_mean_motion_dot": -1.29e-06,
        "meta_mean_motion_ddot": 0,
        "tle_line1": "1 41581U 16035A   25335.80939227 -.00000129  00000+0  00000+0 0  9993",
        "tle_line2": "2 41581   0.0161 269.3023 0001905 309.7465  48.2052  1.00269812 34707"
      },
      "geometry": {
        "type": "Point",
        "coordinates": [
          83.84410088888274,
          0.012639218197738633
        ]
      }
    },
    {
      "type": "Feature",
      "properties": {
        "norad_id": 41747,
        "name": "INTELSAT 36 (IS-36)",
        "group": "intelsat",
        "lat": -0.030954214030358376,
        "lon": -112.59071649191253,
        "alt_km": 35785.10899759917,
        "timestamp": "2025-12-02T07:10:08.777448+00:00",
        "meta_object_name": "INTELSAT 36 (IS-36)",
        "meta_object_id": "2016-053A",
        "meta_epoch": "2025-12-01T10:42:57.919680",
        "meta_mean_motion": 1.0026918,
        "meta_eccentricity": 0.00011725,
        "meta_inclination": 0.0111,
        "meta_ra_of_asc_node": 338.3042,
        "meta_arg_of_pericenter": 339.2761,
        "meta_mean_anomaly": 342.2427,
        "meta_ephemeris_type": 0,
        "meta_classification_type": "U",
        "meta_norad_cat_id": 41747,
        "meta_element_set_no": 999,
        "meta_rev_at_epoch": 3396,
        "meta_bstar": 0,
        "meta_mean_motion_dot": -3e-08,
        "meta_mean_motion_ddot": 0,
        "tle_line1": "1 41747U 16053A   25335.44650370 -.00000003  00000+0  00000+0 0  9997",
        "tle_line2": "2 41747   0.0111 338.3042 0001172 339.2761 342.2427  1.00269180 33965"
      },
      "geometry": {
        "type": "Point",
        "coordinates": [
          -112.59071649191253,
          -0.030954214030358376
        ]
      }
    },
    {
      "type": "Feature",
      "properties": {
        "norad_id": 41945,
        "name": "INTELSAT 32E (IS-32E)",
        "group": "intelsat",
        "lat": 0.008639706416980844,
        "lon": 135.74879685369817,
        "alt_km": 35786.67679886047,
        "timestamp": "2025-12-02T07:10:08.777460+00:00",
        "meta_object_name": "INTELSAT 32E (IS-32E)",
        "meta_object_id": "2017-007B",
        "meta_epoch": "2025-12-01T18:44:45.934944",
        "meta_mean_motion": 1.00270018,
        "meta_eccentricity": 7.5e-06,
        "meta_inclination": 0.0193,
        "meta_ra_of_asc_node": 49.023,
        "meta_arg_of_pericenter": 348.2563,
        "meta_mean_anomaly": 271.6453,
        "meta_ephemeris_type": 0,
        "meta_classification_type": "U",
        "meta_norad_cat_id": 41945,
        "meta_element_set_no": 999,
        "meta_rev_at_epoch": 3224,
        "meta_bstar": 0,
        "meta_mean_motion_dot": -2.48e-06,
        "meta_mean_motion_ddot": 0,
        "tle_line1": "1 41945U 17007B   25335.78108721 -.00000248  00000+0  00000+0 0  9993",
        "tle_line2": "2 41945   0.0193  49.0230 0000075 348.2563 271.6453  1.00270018 32247"
      },
      "geometry": {
        "type": "Point",
        "coordinates": [
          135.74879685369817,
          0.008639706416980844
        ]
      }
    },
    {
      "type": "Feature",
      "properties": {
        "norad_id": 42818,
        "name": "INTELSAT 35E (IS-35E)",
        "group": "intelsat",
        "lat": -0.011594466774333657,
        "lon": 144.42751072457216,
        "alt_km": 35788.70088222929,
        "timestamp": "2025-12-02T07:10:08.777475+00:00",
        "meta_object_name": "INTELSAT 35E (IS-35E)",
        "meta_object_id": "2017-041A",
        "meta_epoch": "2025-12-01T10:13:30.740736",
        "meta_mean_motion": 1.00275797,
        "meta_eccentricity": 0.00023199,
        "meta_inclination": 0.0157,
        "meta_ra_of_asc_node": 304.5375,
        "meta_arg_of_pericenter": 311.9033,
        "meta_mean_anomaly": 293.0092,
        "meta_ephemeris_type": 0,
        "meta_classification_type": "U",
        "meta_norad_cat_id": 42818,
        "meta_element_set_no": 999,
        "meta_rev_at_epoch": 3083,
        "meta_bstar": 0,
        "meta_mean_motion_dot": -2.16e-06,
        "meta_mean_motion_ddot": 0,
        "tle_line1": "1 42818U 17041A   25335.42605024 -.00000216  00000+0  00000+0 0  9995",
        "tle_line2": "2 42818   0.0157 304.5375 0002319 311.9033 293.0092  1.00275797 30837"
      },
      "geometry": {
        "type": "Point",
        "coordinates": [
          144.42751072457216,
          -0.011594466774333657
        ]
      }
    },
    {
      "type": "Feature",
      "properties": {
        "norad_id": 42950,
        "name": "INTELSAT 37E (IS-37E)",
        "group": "intelsat",
        "lat": -0.023824336534075646,
        "lon": 160.88396816942048,
        "alt_km": 35784.6169649842,
        "timestamp": "2025-12-02T07:10:08.777487+00:00",
        "meta_object_name": "INTELSAT 37E (IS-37E)",
        "meta_object_id": "2017-059A",
        "meta_epoch": "2025-12-01T18:51:52.755264",
        "meta_mean_motion": 1.00271082,
        "meta_eccentricity": 0.0003375,
        "meta_inclination": 0.0134,
        "meta_ra_of_asc_node": 288.8836,
        "meta_arg_of_pericenter": 315.23,
        "meta_mean_anomaly": 91.7669,
        "meta_ephemeris_type": 0,
        "meta_classification_type": "U",
        "meta_norad_cat_id": 42950,
        "meta_element_set_no": 999,
        "meta_rev_at_epoch": 3008,
        "meta_bstar": 0,
        "meta_mean_motion_dot": -1.19e-06,
        "meta_mean_motion_ddot": 0,
        "tle_line1": "1 42950U 17059A   25335.78602726 -.00000119  00000+0  00000+0 0  9998",
        "tle_line2": "2 42950   0.0134 288.8836 0003375 315.2300  91.7669  1.00271082 30085"
      },
      "geometry": {
        "type": "Point",
        "coordinates": [
          160.88396816942048,
          -0.023824336534075646
        ]
      }
    },
    {
      "type": "Feature",
      "properties": {
        "norad_id": 43632,
        "name": "AZERSPACE 2 (IS-38)",
        "group": "intelsat",
        "lat": -0.04341187238966206,
        "lon": -135.9818045530541,
        "alt_km": 35780.159730682535,
        "timestamp": "2025-12-02T07:10:08.777499+00:00",
        "meta_object_name": "AZERSPACE 2 (IS-38)",
        "meta_object_id": "2018-074A",
        "meta_epoch": "2025-12-01T19:09:58.519872",
        "meta_mean_motion": 1.00270936,
        "meta_eccentricity": 0.0001559,
        "meta_inclination": 0.0203,
        "meta_ra_of_asc_node": 315.6761,
        "meta_arg_of_pericenter": 290.7871,
        "meta_mean_anomaly": 157.0562,
        "meta_ephemeris_type": 0,
        "meta_classification_type": "U",
        "meta_norad_cat_id": 43632,
        "meta_element_set_no": 999,
        "meta_rev_at_epoch": 2646,
        "meta_bstar": 0,
        "meta_mean_motion_dot": 1.58e-06,
        "meta_mean_motion_ddot": 0,
        "tle_line1": "1 43632U 18074A   25335.79859398  .00000158  00000+0  00000+0 0  9996",
        "tle_line2": "2 43632   0.0203 315.6761 0001559 290.7871 157.0562  1.00270936 26460"
      },
      "geometry": {
        "type": "Point",
        "coordinates": [
          -135.9818045530541,
          -0.04341187238966206
        ]
      }
    },
    {
      "type": "Feature",
      "properties": {
        "norad_id": 43633,
        "name": "HORIZONS-3E",
        "group": "intelsat",
        "lat": 0.02365203461835712,
        "lon": -12.0552469419969,
        "alt_km": 35784.527383422115,
        "timestamp": "2025-12-02T07:10:08.777510+00:00",
        "meta_object_name": "HORIZONS-3E",
        "meta_object_id": "2018-074B",
        "meta_epoch": "2025-12-01T16:19:48.160128",
        "meta_mean_motion": 1.00268882,
        "meta_eccentricity": 8.35e-05,
        "meta_inclination": 0.0286,
        "meta_ra_of_asc_node": 210.1824,
        "meta_arg_of_pericenter": 89.9206,
        "meta_mean_anomaly": 184.6743,
        "meta_ephemeris_type": 0,
        "meta_classification_type": "U",
        "meta_norad_cat_id": 43633,
        "meta_element_set_no": 999,
        "meta_rev_at_epoch": 2636,
        "meta_bstar": 0,
        "meta_mean_motion_dot": -9e-08,
        "meta_mean_motion_ddot": 0,
        "tle_line1": "1 43633U 18074B   25335.68041852 -.00000009  00000+0  00000+0 0  9999",
        "tle_line2": "2 43633   0.0286 210.1824 0000835  89.9206 184.6743  1.00268882 26360"
      },
      "geometry": {
        "type": "Point",
        "coordinates": [
          -12.0552469419969,
          0.02365203461835712
        ]
      }
    }
  ]
}